Synops - dated. 2013-12-02


43086 31596 60000 10228 20200 39974 40153 70521 83502 333 10325 20201 59001 555 10201=
43087 32997 01401 10264 20164 39789 40090 333 10331 20185 59003 555 10295=
43133 32597 20000 10252 20224 39908 40165 82500 333 10300 20220 58004 555 10598=
43137 32997 02701 10254 20215 30025 40152 333 10322 20174 58008 555 10101=
AAXX 02034
43150 31595 30210 10262 20227 30081 40156 70500 81502 222// 20000 333 10302 20241 58006 81620 555 10695=
43177 32596 80000 10192 20186 30013 40137 86230 333 10318 20180 59002 555 10355=
AAXX 02034
43181 31595 20903 10258 20232 30126 40154 70522 81501 333 10319 20225 59001 555 10524 =
43182 32596 50000 10252 20237 30081 40140 85500 333 10322 20186 59010 555 10416=
AAXX 02034 43185 31596 60903 10260 20240 30145 40148 70522 83531 333 
10308 20230 58002 83620 85360 555 00000 10499=
AAXX 02034 43187 32997 00000 10250 20241 30145 40156 333 10315 20230 58003 555 10674=
43213	31996	21401	10240	20210	39829
40148	70500	80002	333	10333	20212	58000	555
10089	=
43220 31596 53602 10252 20234 30139 40146 70522 83502 333 10310 20223 58000 555 10583=
